{
  "type": "FeatureCollection",
  "features": [
    {
      "type": "Feature",
      "properties": {
        "norad_id": 41026,
        "name": "YAOGAN-28",
        "group": "resource",
        "lat": -61.648806064845004,
        "lon": -59.40677661397965,
        "alt_km": 506.88839046028716,
        "timestamp": "2025-12-22T18:58:53.077985+00:00",
        "meta_object_name": "YAOGAN-28",
        "meta_object_id": "2015-064A",
        "meta_epoch": "2025-12-22T06:53:41.429184",
        "meta_mean_motion": 15.24496464,
        "meta_eccentricity": 0.00126499,
        "meta_inclination": 97.2815,
        "meta_ra_of_asc_node": 133.8111,
        "meta_arg_of_pericenter": 95.7476,
        "meta_mean_anomaly": 264.5205,
        "meta_ephemeris_type": 0,
        "meta_classification_type": "U",
        "meta_norad_cat_id": 41026,
        "meta_element_set_no": 999,
        "meta_rev_at_epoch": 56370,
        "meta_bstar": 0.00034301727,
        "meta_mean_motion_dot": 8.383e-05,
        "meta_mean_motion_ddot": 0,
        "tle_line1": "1 41026U 15064A   25356.28728506  .00008383  00000+0  34302-3 0  9994",
        "tle_line2": "2 41026  97.2815 133.8111 0012649  95.7476 264.5205 15.24496464563705"
      },
      "geometry": {
        "type": "Point",
        "coordinates": [
          -59.40677661397965,
          -61.648806064845004
        ]
      }
    },
    {
      "type": "Feature",
      "properties": {
        "norad_id": 41038,
        "name": "YAOGAN-29",
        "group": "resource",
        "lat": -78.43774521215674,
        "lon": 63.56268186326326,
        "alt_km": 627.6831113468224,
        "timestamp": "2025-12-22T18:58:53.077996+00:00",
        "meta_object_name": "YAOGAN-29",
        "meta_object_id": "2015-069A",
        "meta_epoch": "2025-12-22T06:23:37.074912",
        "meta_mean_motion": 14.82890708,
        "meta_eccentricity": 6.098e-05,
        "meta_inclination": 98.0206,
        "meta_ra_of_asc_node": 19.4685,
        "meta_arg_of_pericenter": 172.4418,
        "meta_mean_anomaly": 187.6804,
        "meta_ephemeris_type": 0,
        "meta_classification_type": "U",
        "meta_norad_cat_id": 41038,
        "meta_element_set_no": 999,
        "meta_rev_at_epoch": 54440,
        "meta_bstar": -3.837311e-06,
        "meta_mean_motion_dot": -8.5e-07,
        "meta_mean_motion_ddot": 0,
        "tle_line1": "1 41038U 15069A   25356.26640133 -.00000085  00000+0 -38373-5 0  9996",
        "tle_line2": "2 41038  98.0206  19.4685 0000609 172.4418 187.6804 14.82890708544406"
      },
      "geometry": {
        "type": "Point",
        "coordinates": [
          63.56268186326326,
          -78.43774521215674
        ]
      }
    },
    {
      "type": "Feature",
      "properties": {
        "norad_id": 41167,
        "name": "KENT RIDGE 1",
        "group": "resource",
        "lat": -13.106969582389151,
        "lon": 76.0059745510257,
        "alt_km": 494.1794894732984,
        "timestamp": "2025-12-22T18:58:53.078006+00:00",
        "meta_object_name": "KENT RIDGE 1",
        "meta_object_id": "2015-077B",
        "meta_epoch": "2025-12-21T18:04:45.470784",
        "meta_mean_motion": 15.21699918,
        "meta_eccentricity": 0.00085387,
        "meta_inclination": 14.9785,
        "meta_ra_of_asc_node": 144.2556,
        "meta_arg_of_pericenter": 258.1757,
        "meta_mean_anomaly": 101.7607,
        "meta_ephemeris_type": 0,
        "meta_classification_type": "U",
        "meta_norad_cat_id": 41167,
        "meta_element_set_no": 999,
        "meta_rev_at_epoch": 55401,
        "meta_bstar": 0.00013439533,
        "meta_mean_motion_dot": 3.888e-05,
        "meta_mean_motion_ddot": 0,
        "tle_line1": "1 41167U 15077B   25355.75330406  .00003888  00000+0  13440-3 0  9998",
        "tle_line2": "2 41167  14.9785 144.2556 0008538 258.1757 101.7607 15.21699918554019"
      },
      "geometry": {
        "type": "Point",
        "coordinates": [
          76.0059745510257,
          -13.106969582389151
        ]
      }
    },
    {
      "type": "Feature",
      "properties": {
        "norad_id": 41194,
        "name": "GAOFEN-4",
        "group": "resource",
        "lat": 0.14786164022213405,
        "lon": 121.99938775522789,
        "alt_km": 35778.71648852924,
        "timestamp": "2025-12-22T18:58:53.078019+00:00",
        "meta_object_name": "GAOFEN-4",
        "meta_object_id": "2015-083A",
        "meta_epoch": "2025-12-19T15:27:26.627616",
        "meta_mean_motion": 1.00273138,
        "meta_eccentricity": 0.0002945,
        "meta_inclination": 0.1878,
        "meta_ra_of_asc_node": 81.7841,
        "meta_arg_of_pericenter": 93.4275,
        "meta_mean_anomaly": 250.8523,
        "meta_ephemeris_type": 0,
        "meta_classification_type": "U",
        "meta_norad_cat_id": 41194,
        "meta_element_set_no": 999,
        "meta_rev_at_epoch": 3672,
        "meta_bstar": 0,
        "meta_mean_motion_dot": -3.11e-06,
        "meta_mean_motion_ddot": 0,
        "tle_line1": "1 41194U 15083A   25353.64405819 -.00000311  00000+0  00000+0 0  9995",
        "tle_line2": "2 41194   0.1878  81.7841 0002945  93.4275 250.8523  1.00273138 36722"
      },
      "geometry": {
        "type": "Point",
        "coordinates": [
          121.99938775522789,
          0.14786164022213405
        ]
      }
    },
    {
      "type": "Feature",
      "properties": {
        "norad_id": 41240,
        "name": "JASON-3",
        "group": "resource",
        "lat": 64.63174764132134,
        "lon": -112.98374869404665,
        "alt_km": 1309.3073226171655,
        "timestamp": "2025-12-22T18:58:53.078030+00:00",
        "meta_object_name": "JASON-3",
        "meta_object_id": "2016-002A",
        "meta_epoch": "2025-12-22T05:25:21.531360",
        "meta_mean_motion": 12.87626927,
        "meta_eccentricity": 0.00072492,
        "meta_inclination": 66.0401,
        "meta_ra_of_asc_node": 137.8804,
        "meta_arg_of_pericenter": 271.3824,
        "meta_mean_anomaly": 88.6364,
        "meta_ephemeris_type": 0,
        "meta_classification_type": "U",
        "meta_norad_cat_id": 41240,
        "meta_element_set_no": 999,
        "meta_rev_at_epoch": 46446,
        "meta_bstar": 4.5484565e-05,
        "meta_mean_motion_dot": -5.1e-07,
        "meta_mean_motion_ddot": 0,
        "tle_line1": "1 41240U 16002A   25356.22594365 -.00000051  00000+0  45485-4 0  9993",
        "tle_line2": "2 41240  66.0401 137.8804 0007249 271.3824  88.6364 12.87626927464469"
      },
      "geometry": {
        "type": "Point",
        "coordinates": [
          -112.98374869404665,
          64.63174764132134
        ]
      }
    },
    {
      "type": "Feature",
      "properties": {
        "norad_id": 41335,
        "name": "SENTINEL-3A",
        "group": "resource",
        "lat": 69.20681569320516,
        "lon": -94.76214961013109,
        "alt_km": 795.3049862061926,
        "timestamp": "2025-12-22T18:58:53.078040+00:00",
        "meta_object_name": "SENTINEL-3A",
        "meta_object_id": "2016-011A",
        "meta_epoch": "2025-12-22T06:41:26.853792",
        "meta_mean_motion": 14.2673429,
        "meta_eccentricity": 8.936e-05,
        "meta_inclination": 98.6301,
        "meta_ra_of_asc_node": 61.1582,
        "meta_arg_of_pericenter": 94.9993,
        "meta_mean_anomaly": 265.129,
        "meta_ephemeris_type": 0,
        "meta_classification_type": "U",
        "meta_norad_cat_id": 41335,
        "meta_element_set_no": 999,
        "meta_rev_at_epoch": 51283,
        "meta_bstar": 7.582074e-05,
        "meta_mean_motion_dot": 1.4e-06,
        "meta_mean_motion_ddot": 0,
        "tle_line1": "1 41335U 16011A   25356.27878303  .00000140  00000+0  75821-4 0  9995",
        "tle_line2": "2 41335  98.6301  61.1582 0000893  94.9993 265.1290 14.26734290512833"
      },
      "geometry": {
        "type": "Point",
        "coordinates": [
          -94.76214961013109,
          69.20681569320516
        ]
      }
    },
    {
      "type": "Feature",
      "properties": {
        "norad_id": 41556,
        "name": "ZIYUAN 3-02 (ZY 3-02)",
        "group": "resource",
        "lat": 35.3186117240422,
        "lon": 65.50422667885596,
        "alt_km": 507.58467274913073,
        "timestamp": "2025-12-22T18:58:53.078051+00:00",
        "meta_object_name": "ZIYUAN 3-02 (ZY 3-02)",
        "meta_object_id": "2016-033A",
        "meta_epoch": "2025-12-22T06:11:41.974080",
        "meta_mean_motion": 15.21182213,
        "meta_eccentricity": 0.00111858,
        "meta_inclination": 97.4033,
        "meta_ra_of_asc_node": 70.2665,
        "meta_arg_of_pericenter": 210.3904,
        "meta_mean_anomaly": 149.6685,
        "meta_ephemeris_type": 0,
        "meta_classification_type": "U",
        "meta_norad_cat_id": 41556,
        "meta_element_set_no": 999,
        "meta_rev_at_epoch": 53108,
        "meta_bstar": 0.00034264331,
        "meta_mean_motion_dot": 7.583e-05,
        "meta_mean_motion_ddot": 0,
        "tle_line1": "1 41556U 16033A   25356.25812470  .00007583  00000+0  34264-3 0  9998",
        "tle_line2": "2 41556  97.4033  70.2665 0011185 210.3904 149.6685 15.21182213531082"
      },
      "geometry": {
        "type": "Point",
        "coordinates": [
          65.50422667885596,
          35.3186117240422
        ]
      }
    }
  ]
}